OBJECT_NAME,OBJECT_ID,EPOCH,MEAN_MOTION,ECCENTRICITY,INCLINATION,RA_OF_ASC_NODE,ARG_OF_PERICENTER,MEAN_ANOMALY,EPHEMERIS_TYPE,CLASSIFICATION_TYPE,NORAD_CAT_ID,ELEMENT_SET_NO,REV_AT_EPOCH,BSTAR,MEAN_MOTION_DOT,MEAN_MOTION_DDOT
IRIDIUM 156,2018-061H,2026-06-08T19:33:34.202016,14.34219801,.0002112,86.3965,60.2300,80.8687,279.2748,0,U,43576,999,41217,.76385E-4,.234E-5,0
IRIDIUM 164,2018-061J,2026-06-08T19:06:10.409184,14.34217593,.0002072,86.3967,60.2782,88.2199,271.9234,0,U,43577,999,41221,.36623E-4,.122E-5,0
IRIDIUM 159,2018-061K,2026-06-08T18:20:30.349824,14.34217244,.0002333,86.3963,60.2286,85.0943,275.0519,0,U,43578,999,41217,.76883E-4,.235E-5,0
IRIDIUM 176,2019-002B,2026-06-08T19:10:29.936640,14.72256344,.0002205,86.6094,357.0497,90.9364,269.2106,0,U,43923,999,39801,.12577E-3,.818E-5,0
IRIDIUM 168,2019-002C,2026-06-08T19:51:06.965280,14.34217751,.0002187,86.3977,357.1705,89.0313,271.1133,0,U,43924,999,38777,.7771E-5,.42E-6,0
IRIDIUM 173,2019-002D,2026-06-08T19:32:50.848224,14.34217427,.0002264,86.3973,357.0649,86.4449,273.7006,0,U,43925,999,38775,.22221E-4,.82E-6,0
IRIDIUM 169,2019-002E,2026-06-08T03:22:13.464768,14.38610471,.00021577,86.4235,28.9760,70.6451,289.4981,0,U,43926,999,38892,.84333969E-4,.278E-5,0
IRIDIUM 172,2019-002F,2026-06-08T19:23:42.832032,14.34218543,.0002263,86.3973,357.0756,89.1181,271.0274,0,U,43927,999,38776,.29898E-4,.104E-5,0
IRIDIUM 175,2019-002G,2026-06-08T18:00:08.622720,14.43608311,.0001409,86.4507,294.0484,213.9323,146.1788,0,U,43928,999,39776,.99287E-4,.356E-5,0
IRIDIUM 171,2019-002H,2026-06-08T18:56:18.881088,14.34217990,.000202,86.3982,357.3885,87.7195,272.4232,0,U,43929,999,38775,.13157E-4,.57E-6,0
IRIDIUM 170,2019-002J,2026-06-08T19:19:24.184128,14.72256805,.0002335,86.6093,357.0497,87.3681,272.7804,0,U,43930,999,39802,.12713E-3,.826E-5,0
IRIDIUM 167,2019-002K,2026-06-08T18:47:10.896000,14.34217588,.000186,86.3973,357.1082,86.1672,273.9737,0,U,43931,999,38775,.73624E-6,.22E-6,0
IRIDIUM 181,2023-068S,2026-06-08T18:53:10.995648,14.43310337,.0002292,86.4503,60.3019,90.6912,269.4551,0,U,56726,999,16122,.91281E-4,.327E-5,0
IRIDIUM 177,2023-068T,2026-06-08T17:41:29.106816,14.80225535,.000244,86.1961,332.8059,85.7005,274.4494,0,U,56727,999,16511,.15112E-3,.1175E-4,0
IRIDIUM 174,2023-068U,2026-06-08T19:01:36.445152,14.72252659,.0002565,86.6101,357.2016,85.1964,274.9546,0,U,56728,999,16478,.12299E-3,.8E-5,0
IRIDIUM 179,2023-068W,2026-06-08T17:18:06.651648,14.80236665,.0002399,86.6787,37.8530,87.2179,272.9317,0,U,56730,999,16511,.13293E-3,.1036E-4,0
