IRIDIUM 156             
1 43576U 18061H   26159.81497919  .00000234  00000+0  76385-4 0  9993
2 43576  86.3965  60.2300 0002112  80.8687 279.2748 14.34219801412175
IRIDIUM 164             
1 43577U 18061J   26159.79595381  .00000122  00000+0  36623-4 0  9990
2 43577  86.3967  60.2782 0002072  88.2199 271.9234 14.34217593412217
IRIDIUM 159             
1 43578U 18061K   26159.76424016  .00000235  00000+0  76883-4 0  9991
2 43578  86.3963  60.2286 0002333  85.0943 275.0519 14.34217244412174
IRIDIUM 176             
1 43923U 19002B   26159.79895760  .00000818  00000+0  12577-3 0  9998
2 43923  86.6094 357.0497 0002205  90.9364 269.2106 14.72256344398016
IRIDIUM 168             
1 43924U 19002C   26159.82716395  .00000042  00000+0  77710-5 0  9990
2 43924  86.3977 357.1705 0002187  89.0313 271.1133 14.34217751387779
IRIDIUM 173             
1 43925U 19002D   26159.81447741  .00000082  00000+0  22221-4 0  9996
2 43925  86.3973 357.0649 0002264  86.4449 273.7006 14.34217427387754
IRIDIUM 169             
1 43926U 19002E   26159.14043362  .00000278  00000+0  84334-4 0  9994
2 43926  86.4235  28.9760 0002157  70.6451 289.4981 14.38610471388920
IRIDIUM 172             
1 43927U 19002F   26159.80813463  .00000104  00000+0  29898-4 0  9997
2 43927  86.3973 357.0756 0002263  89.1181 271.0274 14.34218543387766
IRIDIUM 175             
1 43928U 19002G   26159.75009980  .00000356  00000+0  99287-4 0  9991
2 43928  86.4507 294.0484 0001409 213.9323 146.1788 14.43608311397764
IRIDIUM 171             
1 43929U 19002H   26159.78910742  .00000057  00000+0  13157-4 0  9992
2 43929  86.3982 357.3885 0002020  87.7195 272.4232 14.34217990387757
IRIDIUM 170             
1 43930U 19002J   26159.80514102  .00000826  00000+0  12713-3 0  9997
2 43930  86.6093 357.0497 0002335  87.3681 272.7804 14.72256805398026
IRIDIUM 167             
1 43931U 19002K   26159.78276500  .00000022  00000+0  73624-6 0  9991
2 43931  86.3973 357.1082 0001860  86.1672 273.9737 14.34217588387750
IRIDIUM 181             
1 56726U 23068S   26159.78693282  .00000327  00000+0  91281-4 0  9999
2 56726  86.4503  60.3019 0002292  90.6912 269.4551 14.43310337161228
IRIDIUM 177             
1 56727U 23068T   26159.73714244  .00001175  00000+0  15112-3 0  9997
2 56727  86.1961 332.8059 0002440  85.7005 274.4494 14.80225535165118
IRIDIUM 174             
1 56728U 23068U   26159.79278293  .00000800  00000+0  12299-3 0  9990
2 56728  86.6101 357.2016 0002565  85.1964 274.9546 14.72252659164783
IRIDIUM 179             
1 56730U 23068W   26159.72091032  .00001036  00000+0  13293-3 0  9997
2 56730  86.6787  37.8530 0002399  87.2179 272.9317 14.80236665165114
